COMMENT,ORIGINATOR,NORAD_CAT_ID,OBJECT_NAME,OBJECT_TYPE,CLASSIFICATION_TYPE,INTLDES,EPOCH,EPOCH_MICROSECONDS,MEAN_MOTION,ECCENTRICITY,INCLINATION,RA_OF_ASC_NODE,ARG_OF_PERICENTER,MEAN_ANOMALY,EPHEMERIS_TYPE,ELEMENT_SET_NO,REV_AT_EPOCH,BSTAR,MEAN_MOTION_DOT,MEAN_MOTION_DDOT,FILE,TLE_LINE0,TLE_LINE1,TLE_LINE2,OBJECT_ID,OBJECT_NUMBER,SEMIMAJOR_AXIS,PERIOD,APOGEE,PERIGEE,DECAYED,date
GENERATED VIA SPACETRACK.ORG API,18 SPCS,46300,SPACEBEE-21,PAYLOAD,U,20061AE,2023/2/3 4:06,592928,15.3316754,0.0000404,97.4248,109.5103,337.1982,22.9242,0,999,13367,0.0016399,0.00052775,0,3770646,0 SPACEBEE-21,1 46300U 20061AE  23034.17147677  .00052775  00000-0  16399-2 0  9990,2 46300  97.4248 109.5103 0000404 337.1982  22.9242 15.33167540133675,2020-061AE,46300,6844.506,93.923,466.647,466.094,1,2023/3/11
GENERATED VIA SPACETRACK.ORG API,18 SPCS,46300,SPACEBEE-21,PAYLOAD,U,20061AE,2023/2/4 3:36,80800,15.33284249,0.000038,97.4244,110.4931,331.0535,29.0686,0,999,13382,0.0018465,0.00059707,0,3771862,0 SPACEBEE-21,1 46300U 20061AE  23035.15044075  .00059707  00000-0  18465-2 0  9995,2 46300  97.4244 110.4931 0000380 331.0535  29.0686 15.33284249133824,2020-061AE,46300,6844.158,93.916,466.284,465.763,1,2023/3/12
GENERATED VIA SPACETRACK.ORG API,18 SPCS,46300,SPACEBEE-21,PAYLOAD,U,20061AE,2023/2/4 3:36,80800,15.33284249,0.000038,97.4244,110.4931,331.0535,29.0686,0,999,13382,0.0018465,0.00059707,0,3771952,0 SPACEBEE-21,1 46300U 20061AE  23035.15044075  .00059707  00000-0  18465-2 0  9995,2 46300  97.4244 110.4931 0000380 331.0535  29.0686 15.33284249133824,2020-061AE,46300,6844.158,93.916,466.284,465.763,1,2023/3/13
GENERATED VIA SPACETRACK.ORG API,18 SPCS,46300,SPACEBEE-21,PAYLOAD,U,20061AE,2023/2/4 20:50,942016,15.33370396,0.0000468,97.4238,111.2138,328.8244,31.2971,0,999,13393,0.0016033,0.0005192,0,3772514,0 SPACEBEE-21,1 46300U 20061AE  23035.86829794  .00051920  00000-0  16033-2 0  9990,2 46300  97.4238 111.2138 0000468 328.8244  31.2971 15.33370396133936,2020-061AE,46300,6843.902,93.911,466.087,465.447,1,2023/3/14
GENERATED VIA SPACETRACK.ORG API,18 SPCS,46300,SPACEBEE-21,PAYLOAD,U,20061AE,2023/2/5 4:40,58464,15.3340857,0.0000419,97.4236,111.5411,325.2396,34.8818,0,999,13398,0.0015116,0.00048985,0,3772942,0 SPACEBEE-21,1 46300U 20061AE  23036.19458401  .00048985  00000-0  15116-2 0  9998,2 46300  97.4236 111.5411 0000419 325.2396  34.8818 15.33408570133986,2020-061AE,46300,6843.789,93.908,465.94,465.367,1,2023/3/15
GENERATED VIA SPACETRACK.ORG API,18 SPCS,46300,SPACEBEE-21,PAYLOAD,U,20061AE,2023/2/5 17:11,394816,15.33466132,0.0000497,97.4232,112.0657,324.9275,35.1935,0,999,13406,0.0016297,0.00052942,0,3774172,0 SPACEBEE-21,1 46300U 20061AE  23036.71662494  .00052942  00000-0  16297-2 0  9994,2 46300  97.4232 112.0657 0000497 324.9275  35.1935 15.33466132134060,2020-061AE,46300,6843.617,93.905,465.822,465.142,1,2023/3/16
GENERATED VIA SPACETRACK.ORG API,18 SPCS,46300,SPACEBEE-21,PAYLOAD,U,20061AE,2023/2/6 4:09,148288,15.33528684,0.0000466,97.4229,112.5239,313.9435,46.1769,0,999,13413,0.0020754,0.00067708,0,3774604,0 SPACEBEE-21,1 46300U 20061AE  23037.17339292  .00067708  00000-0  20754-2 0  9991,2 46300  97.4229 112.5239 0000466 313.9435  46.1769 15.33528684134135,2020-061AE,46300,6843.431,93.901,465.615,464.977,1,2023/3/17
GENERATED VIA SPACETRACK.ORG API,18 SPCS,46300,SPACEBEE-21,PAYLOAD,U,20061AE,2023/2/6 10:25,683936,15.33564761,0.0000484,97.4228,112.7865,318.2574,41.8632,0,999,13417,0.0022694,0.00074192,0,3775254,0 SPACEBEE-21,1 46300U 20061AE  23037.43439449  .00074192  00000-0  22694-2 0  9995,2 46300  97.4228 112.7865 0000484 318.2574  41.8632 15.33564761134174,2020-061AE,46300,6843.324,93.899,465.52,464.858,1,2023/3/18
GENERATED VIA SPACETRACK.ORG API,18 SPCS,46300,SPACEBEE-21,PAYLOAD,U,20061AE,2023/2/6 16:41,658848,15.33608678,0.0000535,97.4227,113.0487,317.9307,42.1894,0,999,13421,0.0023663,0.00077504,0,3776034,0 SPACEBEE-21,1 46300U 20061AE  23037.69538957  .00077504  00000-0  23663-2 0  9994,2 46300  97.4227 113.0487 0000535 317.9307  42.1894 15.33608678134219,2020-061AE,46300,6843.193,93.896,465.424,464.692,1,2023/3/19
GENERATED VIA SPACETRACK.ORG API,18 SPCS,46300,SPACEBEE-21,PAYLOAD,U,20061AE,2023/2/7 3:39,495808,15.33686572,0.0000479,97.4228,113.5072,308.3169,51.803,0,999,13428,0.0023224,0.00076239,0,3776529,0 SPACEBEE-21,1 46300U 20061AE  23038.15211222  .00076239  00000-0  23224-2 0  9996,2 46300  97.4228 113.5072 0000479 308.3169  51.8030 15.33686572134287,2020-061AE,46300,6842.962,93.891,465.154,464.499,1,2023/3/20
GENERATED VIA SPACETRACK.ORG API,18 SPCS,46300,SPACEBEE-21,PAYLOAD,U,20061AE,2023/2/7 3:39,495808,15.33686572,0.0000479,97.4228,113.5072,308.3169,51.803,0,999,13428,0.0023224,0.00076239,0,3777208,0 SPACEBEE-21,1 46300U 20061AE  23038.15211222  .00076239  00000-0  23224-2 0  9996,2 46300  97.4228 113.5072 0000479 308.3169  51.8030 15.33686572134287,2020-061AE,46300,6842.962,93.891,465.154,464.499,1,2023/3/21
GENERATED VIA SPACETRACK.ORG API,18 SPCS,46300,SPACEBEE-21,PAYLOAD,U,20061AE,2023/2/7 16:10,930368,15.33787975,0.0000429,97.4232,114.0328,317.4961,42.6248,0,999,13436,0.0027596,0.00091074,0,3777976,0 SPACEBEE-21,1 46300U 20061AE  23038.67405012  .00091074  00000-0  27596-2 0  9995,2 46300  97.4232 114.0328 0000429 317.4961  42.6248 15.33787975134365,2020-061AE,46300,6842.66,93.885,464.818,464.231,1,2023/3/22
GENERATED VIA SPACETRACK.ORG API,18 SPCS,46300,SPACEBEE-21,PAYLOAD,U,20061AE,2023/2/7 22:26,527040,15.33839081,0.0000641,97.4227,114.2938,320.5475,39.5721,0,999,13440,0.0026497,0.00087544,0,3777845,0 SPACEBEE-21,1 46300U 20061AE  23038.93500610  .00087544  00000-0  26497-2 0  9990,2 46300  97.4227 114.2938 0000641 320.5475  39.5721 15.33839081134401,2020-061AE,46300,6842.508,93.882,464.812,463.934,1,2023/3/23
GENERATED VIA SPACETRACK.ORG API,18 SPCS,46300,SPACEBEE-21,PAYLOAD,U,20061AE,2023/2/8 4:42,318464,15.33896606,0.0000576,97.4227,114.5561,318.1115,42.0083,0,999,13444,0.0026365,0.00087262,0,3780324,0 SPACEBEE-21,1 46300U 20061AE  23039.19595276  .00087262  00000-0  26365-2 0  9992,2 46300  97.4227 114.5561 0000576 318.1115  42.0083 15.33896606134447,2020-061AE,46300,6842.337,93.879,464.596,463.808,1,2023/3/24
GENERATED VIA SPACETRACK.ORG API,18 SPCS,46300,SPACEBEE-21,PAYLOAD,U,20061AE,2023/2/8 17:13,643680,15.34002762,0.0000662,97.4222,115.0808,318.9566,41.1627,0,999,13452,0.0031128,0.00103611,0,3780487,0 SPACEBEE-21,1 46300U 20061AE  23039.71781995  .00103611  00000-0  31128-2 0  9995,2 46300  97.4222 115.0808 0000662 318.9566  41.1627 15.34002762134522,2020-061AE,46300,6842.021,93.872,464.339,463.433,1,2023/3/25
GENERATED VIA SPACETRACK.ORG API,18 SPCS,46300,SPACEBEE-21,PAYLOAD,U,20061AE,2023/2/8 17:13,643680,15.34002762,0.0000662,97.4222,115.0808,318.9566,41.1627,0,999,13452,0.0031128,0.00103611,0,3780893,0 SPACEBEE-21,1 46300U 20061AE  23039.71781995  .00103611  00000-0  31128-2 0  9995,2 46300  97.4222 115.0808 0000662 318.9566  41.1627 15.34002762134522,2020-061AE,46300,6842.021,93.872,464.339,463.433,1,2023/3/26
GENERATED VIA SPACETRACK.ORG API,18 SPCS,46300,SPACEBEE-21,PAYLOAD,U,20061AE,2023/2/9 10:26,137888,15.34151572,0.0000702,97.4218,115.8021,306.7922,53.3256,0,999,13463,0.0031287,0.00104644,0,3782313,0 SPACEBEE-21,1 46300U 20061AE  23040.43532567  .00104644  00000-0  31287-2 0  9998,2 46300  97.4218 115.8021 0000702 306.7922  53.3256 15.34151572134637,2020-061AE,46300,6841.579,93.863,463.924,462.963,1,2023/3/27
GENERATED VIA SPACETRACK.ORG API,18 SPCS,46300,SPACEBEE-21,PAYLOAD,U,20061AE,2023/2/9 18:16,593120,15.34222504,0.0000809,97.4216,116.1298,306.8869,53.2299,0,999,13468,0.0032233,0.00108102,0,3782938,0 SPACEBEE-21,1 46300U 20061AE  23040.76144205  .00108102  00000-0  32233-2 0  9997,2 46300  97.4216 116.1298 0000809 306.8869  53.2299 15.34222504134689,2020-061AE,46300,6841.368,93.859,463.786,462.679,1,2023/3/28
GENERATED VIA SPACETRACK.ORG API,18 SPCS,46300,SPACEBEE-21,PAYLOAD,U,20061AE,2023/2/9 18:16,593120,15.34222504,0.0000809,97.4216,116.1298,306.8869,53.2299,0,999,13468,0.0032233,0.00108102,0,3783241,0 SPACEBEE-21,1 46300U 20061AE  23040.76144205  .00108102  00000-0  32233-2 0  9997,2 46300  97.4216 116.1298 0000809 306.8869  53.2299 15.34222504134689,2020-061AE,46300,6841.368,93.859,463.786,462.679,1,2023/3/29
GENERATED VIA SPACETRACK.ORG API,18 SPCS,46300,SPACEBEE-21,PAYLOAD,U,20061AE,2023/2/10 3:39,587552,15.34309286,0.000073,97.4214,116.5233,294.5281,65.5886,0,999,13474,0.0033403,0.001124,0,3784184,0 SPACEBEE-21,1 46300U 20061AE  23041.15276143  .00112400  00000-0  33403-2 0  9994,2 46300  97.4214 116.5233 0000730 294.5281  65.5886 15.34309286134742,2020-061AE,46300,6841.11,93.853,463.474,462.475,1,2023/3/30
GENERATED VIA SPACETRACK.ORG API,18 SPCS,46300,SPACEBEE-21,PAYLOAD,U,20061AE,2023/2/10 16:11,389088,15.34434521,0.0000678,97.4211,117.0483,298.7583,61.3592,0,999,13482,0.0033592,0.00113501,0,3785071,0 SPACEBEE-21,1 46300U 20061AE  23041.67448367  .00113501  00000-0  33592-2 0  9992,2 46300  97.4211 117.0483 0000678 298.7583  61.3592 15.34434521134822,2020-061AE,46300,6840.738,93.846,463.066,462.139,1,2023/3/31
GENERATED VIA SPACETRACK.ORG API,18 SPCS,46300,SPACEBEE-21,PAYLOAD,U,20061AE,2023/2/10 22:26,448928,15.34493822,0.0000696,97.421,117.3102,293.9397,66.1773,0,999,13486,0.0033293,0.00112689,0,3785384,0 SPACEBEE-21,1 46300U 20061AE  23041.93532927  .00112689  00000-0  33293-2 0  9991,2 46300  97.4210 117.3102 0000696 293.9397  66.1773 15.34493822134869,2020-061AE,46300,6840.561,93.842,462.902,461.95,1,2023/4/1
GENERATED VIA SPACETRACK.ORG API,18 SPCS,46300,SPACEBEE-21,PAYLOAD,U,20061AE,2023/2/11 4:42,539360,15.34563953,0.0000679,97.421,117.5725,291.3078,68.8093,0,999,13490,0.0033898,0.00115029,0,3785983,0 SPACEBEE-21,1 46300U 20061AE  23042.19616365  .00115029  00000-0  33898-2 0  9991,2 46300  97.4210 117.5725 0000679 291.3078  68.8093 15.34563953134903,2020-061AE,46300,6840.353,93.838,462.682,461.754,1,2023/4/2
